NORAD_CAT_ID,OBJECT_NAME,OBJECT_TYPE,EPOCH,MEAN_MOTION,ECCENTRICITY,INCLINATION,RA_OF_ASC_NODE,ARG_OF_PERICENTER,MEAN_ANOMALY,BSTAR,MEAN_MOTION_DOT,MEAN_MOTION_DDOT,TLE_LINE0,TLE_LINE1,TLE_LINE2,SEMIMAJOR_AXIS,PERIOD,APOGEE,PERIGEE,DECAYED
54171.0,STARLINK-5229,PAYLOAD,2024-08-19 20:02:15,15.08838152,0.0001441,53.2189,33.6803,94.4399,265.6757,3.6334e-05,2.9e-06,0.0,0 STARLINK-5229,1 54171U 22141Q   24232.83489757  .00000290  00000-0  36334-4 0  9996,2 54171  53.2189  33.6803 0001441  94.4399 265.6757 15.08838152100212,6917.886,95.438,540.748,538.754,0.0
54171.0,STARLINK-5229,PAYLOAD,2024-08-20 10:20:43,15.08839999,0.0001369,53.2188,31.0039,86.1963,273.9186,-7.7341e-06,-4.11e-06,0.0,0 STARLINK-5229,1 54171U 22141Q   24233.43105823 -.00000411  00000-0 -77341-5 0  9993,2 54171  53.2188  31.0039 0001369  86.1963 273.9186 15.08839999100306,6917.88,95.438,540.692,538.798,0.0
54171.0,STARLINK-5229,PAYLOAD,2024-08-20 18:17:38,15.08847693,0.000145,53.2185,29.5181,86.0573,274.0585,0.00010778,1.428e-05,0.0,0 STARLINK-5229,1 54171U 22141Q   24233.76225427  .00001428  00000-0  10778-3 0  9998,2 54171  53.2185  29.5181 0001450  86.0573 274.0585 15.08847693100350,6917.857,95.437,540.725,538.719,0.0
54171.0,STARLINK-5229,PAYLOAD,2024-08-21 14:57:40,15.08837188,0.0001538,53.2182,25.652,84.5685,275.5482,0.00011376,1.523e-05,0.0,0 STARLINK-5229,1 54171U 22141Q   24234.62338298  .00001523  00000-0  11376-3 0  9996,2 54171  53.2182  25.6520 0001538  84.5685 275.5482 15.08837188100489,6917.889,95.438,540.818,538.69,0.0
54171.0,STARLINK-5229,PAYLOAD,2024-08-21 16:33:03,15.08838066,0.0001511,53.219,25.3563,82.9699,277.1464,0.00012068,1.633e-05,0.0,0 STARLINK-5229,1 54171U 22141Q   24234.68962296  .00001633  00000-0  12068-3 0  9994,2 54171  53.2190  25.3563 0001511  82.9699 277.1464 15.08838066100495,6917.886,95.438,540.797,538.706,0.0
